{
  "type": "FeatureCollection",
  "features": [
    {
      "type": "Feature",
      "properties": {
        "norad_id": 32275,
        "name": "COSMOS 2433 (720)",
        "group": "glo-ops",
        "lat": -11.294601637050203,
        "lon": -42.88540781806304,
        "alt_km": 19133.082979335482,
        "timestamp": "2025-12-09T18:55:17.492854+00:00",
        "meta_object_name": "COSMOS 2433 (720)",
        "meta_object_id": "2007-052A",
        "meta_epoch": "2025-12-09T08:02:51.661824",
        "meta_mean_motion": 2.13103784,
        "meta_eccentricity": 0.00055818,
        "meta_inclination": 65.6852,
        "meta_ra_of_asc_node": 322.3203,
        "meta_arg_of_pericenter": 252.1603,
        "meta_mean_anomaly": 107.7768,
        "meta_ephemeris_type": 0,
        "meta_classification_type": "U",
        "meta_norad_cat_id": 32275,
        "meta_element_set_no": 999,
        "meta_rev_at_epoch": 14101,
        "meta_bstar": 0,
        "meta_mean_motion_dot": -4.9e-07,
        "meta_mean_motion_ddot": 0,
        "tle_line1": "1 32275U 07052A   25343.33532016 -.00000049  00000+0  00000+0 0  9995",
        "tle_line2": "2 32275  65.6852 322.3203 0005581 252.1603 107.7768  2.13103784141018"
      },
      "geometry": {
        "type": "Point",
        "coordinates": [
          -42.88540781806304,
          -11.294601637050203
        ]
      }
    },
    {
      "type": "Feature",
      "properties": {
        "norad_id": 32276,
        "name": "COSMOS 2432 (719)",
        "group": "glo-ops",
        "lat": -57.685535120188064,
        "lon": -83.15357640402354,
        "alt_km": 19108.982266352665,
        "timestamp": "2025-12-09T18:55:17.492878+00:00",
        "meta_object_name": "COSMOS 2432 (719)",
        "meta_object_id": "2007-052B",
        "meta_epoch": "2025-12-09T13:28:48.375264",
        "meta_mean_motion": 2.13102958,
        "meta_eccentricity": 0.00112506,
        "meta_inclination": 65.7007,
        "meta_ra_of_asc_node": 322.4368,
        "meta_arg_of_pericenter": 311.4097,
        "meta_mean_anomaly": 166.6519,
        "meta_ephemeris_type": 0,
        "meta_classification_type": "U",
        "meta_norad_cat_id": 32276,
        "meta_element_set_no": 999,
        "meta_rev_at_epoch": 14104,
        "meta_bstar": 0,
        "meta_mean_motion_dot": -4.9e-07,
        "meta_mean_motion_ddot": 0,
        "tle_line1": "1 32276U 07052B   25343.56167101 -.00000049  00000+0  00000+0 0  9990",
        "tle_line2": "2 32276  65.7007 322.4368 0011250 311.4097 166.6519  2.13102958141044"
      },
      "geometry": {
        "type": "Point",
        "coordinates": [
          -83.15357640402354,
          -57.685535120188064
        ]
      }
    },
    {
      "type": "Feature",
      "properties": {
        "norad_id": 32393,
        "name": "COSMOS 2434 (721)",
        "group": "glo-ops",
        "lat": -49.94609941812129,
        "lon": 53.22993714967181,
        "alt_km": 19146.388807315918,
        "timestamp": "2025-12-09T18:55:17.492893+00:00",
        "meta_object_name": "COSMOS 2434 (721)",
        "meta_object_id": "2007-065A",
        "meta_epoch": "2025-12-09T05:35:23.361792",
        "meta_mean_motion": 2.13101149,
        "meta_eccentricity": 0.00042885,
        "meta_inclination": 64.3147,
        "meta_ra_of_asc_node": 198.3216,
        "meta_arg_of_pericenter": 70.9906,
        "meta_mean_anomaly": 101.028,
        "meta_ephemeris_type": 0,
        "meta_classification_type": "U",
        "meta_norad_cat_id": 32393,
        "meta_element_set_no": 999,
        "meta_rev_at_epoch": 13972,
        "meta_bstar": 0,
        "meta_mean_motion_dot": 4.5e-07,
        "meta_mean_motion_ddot": 0,
        "tle_line1": "1 32393U 07065A   25343.23290928  .00000045  00000+0  00000+0 0  9997",
        "tle_line2": "2 32393  64.3147 198.3216 0004288  70.9906 101.0280  2.13101149139726"
      },
      "geometry": {
        "type": "Point",
        "coordinates": [
          53.22993714967181,
          -49.94609941812129
        ]
      }
    },
    {
      "type": "Feature",
      "properties": {
        "norad_id": 32395,
        "name": "COSMOS 2436 (723)",
        "group": "glo-ops",
        "lat": 10.076083363325141,
        "lon": -156.71886918019894,
        "alt_km": 19083.98574244206,
        "timestamp": "2025-12-09T18:55:17.492907+00:00",
        "meta_object_name": "COSMOS 2436 (723)",
        "meta_object_id": "2007-065C",
        "meta_epoch": "2025-12-08T02:01:11.627904",
        "meta_mean_motion": 2.13100022,
        "meta_eccentricity": 0.00177472,
        "meta_inclination": 64.3236,
        "meta_ra_of_asc_node": 198.4308,
        "meta_arg_of_pericenter": 9.2257,
        "meta_mean_anomaly": 134.6131,
        "meta_ephemeris_type": 0,
        "meta_classification_type": "U",
        "meta_norad_cat_id": 32395,
        "meta_element_set_no": 999,
        "meta_rev_at_epoch": 13965,
        "meta_bstar": 0,
        "meta_mean_motion_dot": 5.1e-07,
        "meta_mean_motion_ddot": 0,
        "tle_line1": "1 32395U 07065C   25342.08416236  .00000051  00000+0  00000+0 0  9990",
        "tle_line2": "2 32395  64.3236 198.4308 0017747   9.2257 134.6131  2.13100022139656"
      },
      "geometry": {
        "type": "Point",
        "coordinates": [
          -156.71886918019894,
          10.076083363325141
        ]
      }
    },
    {
      "type": "Feature",
      "properties": {
        "norad_id": 36111,
        "name": "COSMOS 2456 (730)",
        "group": "glo-ops",
        "lat": 31.511400126694554,
        "lon": 94.12154185902199,
        "alt_km": 19127.033799676934,
        "timestamp": "2025-12-09T18:55:17.492919+00:00",
        "meta_object_name": "COSMOS 2456 (730)",
        "meta_object_id": "2009-070A",
        "meta_epoch": "2025-12-09T05:47:54.858624",
        "meta_mean_motion": 2.13103359,
        "meta_eccentricity": 0.00028383,
        "meta_inclination": 64.8981,
        "meta_ra_of_asc_node": 77.4578,
        "meta_arg_of_pericenter": 298.5783,
        "meta_mean_anomaly": 37.1692,
        "meta_ephemeris_type": 0,
        "meta_classification_type": "U",
        "meta_norad_cat_id": 36111,
        "meta_element_set_no": 999,
        "meta_rev_at_epoch": 12437,
        "meta_bstar": 0,
        "meta_mean_motion_dot": -1.7e-07,
        "meta_mean_motion_ddot": 0,
        "tle_line1": "1 36111U 09070A   25343.24160716 -.00000017  00000+0  00000+0 0  9999",
        "tle_line2": "2 36111  64.8981  77.4578 0002838 298.5783  37.1692  2.13103359124373"
      },
      "geometry": {
        "type": "Point",
        "coordinates": [
          94.12154185902199,
          31.511400126694554
        ]
      }
    },
    {
      "type": "Feature",
      "properties": {
        "norad_id": 36112,
        "name": "COSMOS 2457 (733)",
        "group": "glo-ops",
        "lat": 14.052419999957378,
        "lon": -109.43889830708036,
        "alt_km": 19116.39975069047,
        "timestamp": "2025-12-09T18:55:17.492931+00:00",
        "meta_object_name": "COSMOS 2457 (733)",
        "meta_object_id": "2009-070B",
        "meta_epoch": "2025-12-08T14:21:11.818944",
        "meta_mean_motion": 2.13100771,
        "meta_eccentricity": 0.0004866,
        "meta_inclination": 64.883,
        "meta_ra_of_asc_node": 77.3275,
        "meta_arg_of_pericenter": 155.8932,
        "meta_mean_anomaly": 175.3227,
        "meta_ephemeris_type": 0,
        "meta_classification_type": "U",
        "meta_norad_cat_id": 36112,
        "meta_element_set_no": 999,
        "meta_rev_at_epoch": 12436,
        "meta_bstar": 0,
        "meta_mean_motion_dot": -1.5e-07,
        "meta_mean_motion_ddot": 0,
        "tle_line1": "1 36112U 09070B   25342.59805346 -.00000015  00000+0  00000+0 0  9990",
        "tle_line2": "2 36112  64.8830  77.3275 0004866 155.8932 175.3227  2.13100771124367"
      },
      "geometry": {
        "type": "Point",
        "coordinates": [
          -109.43889830708036,
          14.052419999957378
        ]
      }
    },
    {
      "type": "Feature",
      "properties": {
        "norad_id": 36402,
        "name": "COSMOS 2460 (732)",
        "group": "glo-ops",
        "lat": 14.652569028681633,
        "lon": 134.02614445566562,
        "alt_km": 19130.424958023978,
        "timestamp": "2025-12-09T18:55:17.492942+00:00",
        "meta_object_name": "COSMOS 2460 (732)",
        "meta_object_id": "2010-007C",
        "meta_epoch": "2025-12-09T13:46:14.045952",
        "meta_mean_motion": 2.13105903,
        "meta_eccentricity": 0.00028013,
        "meta_inclination": 65.5317,
        "meta_ra_of_asc_node": 320.8806,
        "meta_arg_of_pericenter": 271.9201,
        "meta_mean_anomaly": 87.2578,
        "meta_ephemeris_type": 0,
        "meta_classification_type": "U",
        "meta_norad_cat_id": 36402,
        "meta_element_set_no": 999,
        "meta_rev_at_epoch": 12268,
        "meta_bstar": 0,
        "meta_mean_motion_dot": -4.9e-07,
        "meta_mean_motion_ddot": 0,
        "tle_line1": "1 36402U 10007C   25343.57377368 -.00000049  00000+0  00000+0 0  9998",
        "tle_line2": "2 36402  65.5317 320.8806 0002801 271.9201  87.2578  2.13105903122684"
      },
      "geometry": {
        "type": "Point",
        "coordinates": [
          134.02614445566562,
          14.652569028681633
        ]
      }
    }
  ]
}